<?xml version='1.0' encoding='UTF-8'?>
<gpx version="1.1" creator="https://www.komoot.de" xmlns="http://www.topografix.com/GPX/1/1" xmlns:xsi="http://www.w3.org/2001/XMLSchema-instance" xsi:schemaLocation="http://www.topografix.com/GPX/1/1 http://www.topografix.com/GPX/1/1/gpx.xsd">
  <metadata>
    <name>Stage 18: from El Puerto de Santa María to Jerez de la Frontera — La Vuelta 26</name>
    <author>
      <link href="https://www.komoot.de">
        <text>komoot</text>
        <type>text/html</type>
      </link>
    </author>
  </metadata>
  <wpt lat="36.596877" lon="-6.232876">
    <name>El Puerto de Santa María</name>
    <sym>Flag, Blue</sym>
  </wpt>
  <wpt lat="36.596344" lon="-6.233400">
    <name>Royal Bullring of El Puerto de Santa María</name>
    <sym>Flag, Blue</sym>
  </wpt>
  <wpt lat="36.628612" lon="-6.161807">
    <name>Entrance to the Doña Blanca archaeological site</name>
    <sym>Flag, Blue</sym>
  </wpt>
  <wpt lat="36.637030" lon="-6.133107">
    <name>El Portal</name>
    <sym>Flag, Blue</sym>
  </wpt>
  <wpt lat="36.653196" lon="-6.083374">
    <name>Lomopardo</name>
    <sym>Flag, Blue</sym>
  </wpt>
  <wpt lat="36.669838" lon="-6.070380">
    <name>Straight stretch through the fields</name>
    <sym>Flag, Blue</sym>
  </wpt>
  <wpt lat="36.684385" lon="-6.076392">
    <name>Estella del Marqués</name>
    <sym>Flag, Blue</sym>
  </wpt>
  <wpt lat="36.692343" lon="-6.132629">
    <name>Jerez de la Frontera</name>
    <sym>Shopping Center</sym>
  </wpt>
  <wpt lat="36.692196" lon="-6.132871">
    <name>Jerez de la Frontera</name>
    <sym>Flag, Blue</sym>
  </wpt>
  <trk>
    <name>Stage 18: from El Puerto de Santa María to Jerez de la Frontera — La Vuelta 26</name>
    <type>racebike</type>
    <trkseg>
      <trkpt lat="36.596877" lon="-6.232876">
        <ele>10.915985</ele>
        <time>2026-07-30T08:11:12.554Z</time>
      </trkpt>
      <trkpt lat="36.596360" lon="-6.233420">
        <ele>10.915985</ele>
        <time>2026-07-30T08:11:25.106Z</time>
      </trkpt>
      <trkpt lat="36.596246" lon="-6.233556">
        <ele>10.915985</ele>
        <time>2026-07-30T08:11:43.473Z</time>
      </trkpt>
      <trkpt lat="36.596215" lon="-6.233507">
        <ele>10.915985</ele>
        <time>2026-07-30T08:11:44.399Z</time>
      </trkpt>
      <trkpt lat="36.595852" lon="-6.233864">
        <ele>10.689506</ele>
        <time>2026-07-30T08:11:53.302Z</time>
      </trkpt>
      <trkpt lat="36.595758" lon="-6.233948">
        <ele>10.631011</ele>
        <time>2026-07-30T08:11:55.396Z</time>
      </trkpt>
      <trkpt lat="36.595683" lon="-6.234025">
        <ele>10.581867</ele>
        <time>2026-07-30T08:11:57.016Z</time>
      </trkpt>
      <trkpt lat="36.595497" lon="-6.234195">
        <ele>10.465218</ele>
        <time>2026-07-30T08:12:00.737Z</time>
      </trkpt>
      <trkpt lat="36.595284" lon="-6.234411">
        <ele>10.326339</ele>
        <time>2026-07-30T08:12:04.520Z</time>
      </trkpt>
      <trkpt lat="36.595201" lon="-6.234485">
        <ele>10.274729</ele>
        <time>2026-07-30T08:12:05.770Z</time>
      </trkpt>
      <trkpt lat="36.594585" lon="-6.235111">
        <ele>9.423434</ele>
        <time>2026-07-30T08:12:14.212Z</time>
      </trkpt>
      <trkpt lat="36.594268" lon="-6.235433">
        <ele>8.522082</ele>
        <time>2026-07-30T08:12:18.304Z</time>
      </trkpt>
      <trkpt lat="36.593897" lon="-6.235717">
        <ele>7.562524</ele>
        <time>2026-07-30T08:12:22.857Z</time>
      </trkpt>
      <trkpt lat="36.593897" lon="-6.235717">
        <ele>7.562524</ele>
        <time>2026-07-30T08:12:22.872Z</time>
      </trkpt>
      <trkpt lat="36.593710" lon="-6.235641">
        <ele>7.129086</ele>
        <time>2026-07-30T08:12:26.513Z</time>
      </trkpt>
      <trkpt lat="36.593710" lon="-6.235641">
        <ele>7.129086</ele>
        <time>2026-07-30T08:12:26.533Z</time>
      </trkpt>
      <trkpt lat="36.593558" lon="-6.235676">
        <ele>6.788477</ele>
        <time>2026-07-30T08:12:29.401Z</time>
      </trkpt>
      <trkpt lat="36.593490" lon="-6.235605">
        <ele>6.592953</ele>
        <time>2026-07-30T08:12:30.335Z</time>
      </trkpt>
      <trkpt lat="36.593339" lon="-6.235332">
        <ele>6.032869</ele>
        <time>2026-07-30T08:12:33.440Z</time>
      </trkpt>
      <trkpt lat="36.593235" lon="-6.235033">
        <ele>5.870469</ele>
        <time>2026-07-30T08:12:36.620Z</time>
      </trkpt>
      <trkpt lat="36.593191" lon="-6.234739">
        <ele>5.721420</ele>
        <time>2026-07-30T08:12:39.498Z</time>
      </trkpt>
      <trkpt lat="36.593228" lon="-6.234093">
        <ele>5.398644</ele>
        <time>2026-07-30T08:12:46.369Z</time>
      </trkpt>
      <trkpt lat="36.593242" lon="-6.233943">
        <ele>5.323382</ele>
        <time>2026-07-30T08:12:48.013Z</time>
      </trkpt>
      <trkpt lat="36.593288" lon="-6.233456">
        <ele>5.078995</ele>
        <time>2026-07-30T08:12:53.201Z</time>
      </trkpt>
      <trkpt lat="36.593346" lon="-6.232775">
        <ele>5.032709</ele>
        <time>2026-07-30T08:13:01.258Z</time>
      </trkpt>
      <trkpt lat="36.593362" lon="-6.232419">
        <ele>5.132324</ele>
        <time>2026-07-30T08:13:06.294Z</time>
      </trkpt>
      <trkpt lat="36.593374" lon="-6.232139">
        <ele>5.210662</ele>
        <time>2026-07-30T08:13:10.296Z</time>
      </trkpt>
      <trkpt lat="36.593278" lon="-6.231708">
        <ele>5.335623</ele>
        <time>2026-07-30T08:13:16.728Z</time>
      </trkpt>
      <trkpt lat="36.593272" lon="-6.231683">
        <ele>5.342913</ele>
        <time>2026-07-30T08:13:17.083Z</time>
      </trkpt>
      <trkpt lat="36.593210" lon="-6.231565">
        <ele>5.382312</ele>
        <time>2026-07-30T08:13:19.051Z</time>
      </trkpt>
      <trkpt lat="36.593038" lon="-6.231287">
        <ele>5.480365</ele>
        <time>2026-07-30T08:13:23.831Z</time>
      </trkpt>
      <trkpt lat="36.592960" lon="-6.231169">
        <ele>5.523067</ele>
        <time>2026-07-30T08:13:25.813Z</time>
      </trkpt>
      <trkpt lat="36.592516" lon="-6.230480">
        <ele>5.399422</ele>
        <time>2026-07-30T08:13:35.951Z</time>
      </trkpt>
      <trkpt lat="36.592039" lon="-6.229745">
        <ele>5.213272</ele>
        <time>2026-07-30T08:13:45.625Z</time>
      </trkpt>
      <trkpt lat="36.592039" lon="-6.229745">
        <ele>5.213272</ele>
        <time>2026-07-30T08:13:45.637Z</time>
      </trkpt>
      <trkpt lat="36.592077" lon="-6.229793">
        <ele>5.199995</ele>
        <time>2026-07-30T08:13:46.640Z</time>
      </trkpt>
      <trkpt lat="36.592065" lon="-6.229761">
        <ele>5.193038</ele>
        <time>2026-07-30T08:13:47.166Z</time>
      </trkpt>
      <trkpt lat="36.592068" lon="-6.229712">
        <ele>5.183359</ele>
        <time>2026-07-30T08:13:47.897Z</time>
      </trkpt>
      <trkpt lat="36.592460" lon="-6.229310">
        <ele>5.244064</ele>
        <time>2026-07-30T08:13:57.308Z</time>
      </trkpt>
      <trkpt lat="36.593130" lon="-6.228690">
        <ele>5.760884</ele>
        <time>2026-07-30T08:14:12.777Z</time>
      </trkpt>
      <trkpt lat="36.593560" lon="-6.228255">
        <ele>6.103889</ele>
        <time>2026-07-30T08:14:23.044Z</time>
      </trkpt>
      <trkpt lat="36.593990" lon="-6.227820">
        <ele>6.383345</ele>
        <time>2026-07-30T08:14:33.310Z</time>
      </trkpt>
      <trkpt lat="36.594580" lon="-6.227280">
        <ele>6.706826</ele>
        <time>2026-07-30T08:14:46.879Z</time>
      </trkpt>
      <trkpt lat="36.594584" lon="-6.227275">
        <ele>6.709330</ele>
        <time>2026-07-30T08:14:46.991Z</time>
      </trkpt>
      <trkpt lat="36.594604" lon="-6.227255">
        <ele>6.720662</ele>
        <time>2026-07-30T08:14:48.740Z</time>
      </trkpt>
      <trkpt lat="36.594826" lon="-6.227031">
        <ele>6.846890</ele>
        <time>2026-07-30T08:15:08.610Z</time>
      </trkpt>
      <trkpt lat="36.595093" lon="-6.226762">
        <ele>6.998615</ele>
        <time>2026-07-30T08:15:32.489Z</time>
      </trkpt>
      <trkpt lat="36.595093" lon="-6.226762">
        <ele>6.998615</ele>
        <time>2026-07-30T08:15:32.496Z</time>
      </trkpt>
      <trkpt lat="36.595160" lon="-6.226697">
        <ele>7.014926</ele>
        <time>2026-07-30T08:15:34.071Z</time>
      </trkpt>
      <trkpt lat="36.595740" lon="-6.226114">
        <ele>6.918968</ele>
        <time>2026-07-30T08:15:47.883Z</time>
      </trkpt>
      <trkpt lat="36.596320" lon="-6.225532">
        <ele>6.823074</ele>
        <time>2026-07-30T08:16:01.686Z</time>
      </trkpt>
      <trkpt lat="36.596278" lon="-6.225577">
        <ele>6.815941</ele>
        <time>2026-07-30T08:16:02.712Z</time>
      </trkpt>
      <trkpt lat="36.596485" lon="-6.225372">
        <ele>6.745529</ele>
        <time>2026-07-30T08:16:06.807Z</time>
      </trkpt>
      <trkpt lat="36.596909" lon="-6.224944">
        <ele>6.266122</ele>
        <time>2026-07-30T08:16:13.688Z</time>
      </trkpt>
      <trkpt lat="36.597068" lon="-6.224802">
        <ele>6.094260</ele>
        <time>2026-07-30T08:16:16.033Z</time>
      </trkpt>
      <trkpt lat="36.597148" lon="-6.224734">
        <ele>6.009182</ele>
        <time>2026-07-30T08:16:17.187Z</time>
      </trkpt>
      <trkpt lat="36.597564" lon="-6.224349">
        <ele>5.553927</ele>
        <time>2026-07-30T08:16:23.784Z</time>
      </trkpt>
      <trkpt lat="36.597613" lon="-6.224343">
        <ele>5.510677</ele>
        <time>2026-07-30T08:16:24.376Z</time>
      </trkpt>
      <trkpt lat="36.597728" lon="-6.224366">
        <ele>5.408364</ele>
        <time>2026-07-30T08:16:25.778Z</time>
      </trkpt>
      <trkpt lat="36.597794" lon="-6.224362">
        <ele>5.350320</ele>
        <time>2026-07-30T08:16:26.551Z</time>
      </trkpt>
      <trkpt lat="36.597889" lon="-6.224299">
        <ele>5.255779</ele>
        <time>2026-07-30T08:16:27.768Z</time>
      </trkpt>
      <trkpt lat="36.598625" lon="-6.223706">
        <ele>4.250089</ele>
        <time>2026-07-30T08:16:37.765Z</time>
      </trkpt>
      <trkpt lat="36.598919" lon="-6.223445">
        <ele>3.829473</ele>
        <time>2026-07-30T08:16:42.112Z</time>
      </trkpt>
      <trkpt lat="36.599294" lon="-6.222996">
        <ele>3.223467</ele>
        <time>2026-07-30T08:16:48.309Z</time>
      </trkpt>
      <trkpt lat="36.599538" lon="-6.222708">
        <ele>3.102796</ele>
        <time>2026-07-30T08:16:52.782Z</time>
      </trkpt>
      <trkpt lat="36.599748" lon="-6.222441">
        <ele>3.090511</ele>
        <time>2026-07-30T08:16:57.203Z</time>
      </trkpt>
      <trkpt lat="36.599939" lon="-6.222261">
        <ele>3.080706</ele>
        <time>2026-07-30T08:17:00.692Z</time>
      </trkpt>
      <trkpt lat="36.600150" lon="-6.222206">
        <ele>3.071880</ele>
        <time>2026-07-30T08:17:03.742Z</time>
      </trkpt>
      <trkpt lat="36.600303" lon="-6.222190">
        <ele>3.065595</ele>
        <time>2026-07-30T08:17:05.880Z</time>
      </trkpt>
      <trkpt lat="36.600439" lon="-6.222128">
        <ele>3.059666</ele>
        <time>2026-07-30T08:17:07.995Z</time>
      </trkpt>
      <trkpt lat="36.600632" lon="-6.221940">
        <ele>3.049635</ele>
        <time>2026-07-30T08:17:11.813Z</time>
      </trkpt>
      <trkpt lat="36.600761" lon="-6.221819">
        <ele>3.043024</ele>
        <time>2026-07-30T08:17:14.603Z</time>
      </trkpt>
      <trkpt lat="36.601023" lon="-6.221450">
        <ele>3.220256</ele>
        <time>2026-07-30T08:17:22.233Z</time>
      </trkpt>
      <trkpt lat="36.601435" lon="-6.221012">
        <ele>3.549791</ele>
        <time>2026-07-30T08:17:31.649Z</time>
      </trkpt>
      <trkpt lat="36.601573" lon="-6.220897">
        <ele>3.650805</ele>
        <time>2026-07-30T08:17:34.404Z</time>
      </trkpt>
      <trkpt lat="36.602011" lon="-6.220415">
        <ele>4.006373</ele>
        <time>2026-07-30T08:17:44.259Z</time>
      </trkpt>
      <trkpt lat="36.602011" lon="-6.220415">
        <ele>4.006373</ele>
        <time>2026-07-30T08:17:44.271Z</time>
      </trkpt>
      <trkpt lat="36.602186" lon="-6.220209">
        <ele>4.150594</ele>
        <time>2026-07-30T08:17:48.734Z</time>
      </trkpt>
      <trkpt lat="36.602186" lon="-6.220209">
        <ele>4.150594</ele>
        <time>2026-07-30T08:17:48.738Z</time>
      </trkpt>
      <trkpt lat="36.602174" lon="-6.219978">
        <ele>4.250554</ele>
        <time>2026-07-30T08:17:52.182Z</time>
      </trkpt>
      <trkpt lat="36.602296" lon="-6.219740">
        <ele>4.372491</ele>
        <time>2026-07-30T08:17:56.384Z</time>
      </trkpt>
      <trkpt lat="36.602384" lon="-6.219584">
        <ele>4.454823</ele>
        <time>2026-07-30T08:17:59.228Z</time>
      </trkpt>
      <trkpt lat="36.602384" lon="-6.219584">
        <ele>4.454823</ele>
        <time>2026-07-30T08:17:59.238Z</time>
      </trkpt>
      <trkpt lat="36.602503" lon="-6.219483">
        <ele>4.532279</ele>
        <time>2026-07-30T08:18:01.908Z</time>
      </trkpt>
      <trkpt lat="36.602947" lon="-6.219262">
        <ele>4.789466</ele>
        <time>2026-07-30T08:18:09.653Z</time>
      </trkpt>
      <trkpt lat="36.603876" lon="-6.218892">
        <ele>5.294741</ele>
        <time>2026-07-30T08:18:26.687Z</time>
      </trkpt>
      <trkpt lat="36.603964" lon="-6.218857">
        <ele>5.339922</ele>
        <time>2026-07-30T08:18:28.340Z</time>
      </trkpt>
      <trkpt lat="36.603967" lon="-6.218805">
        <ele>5.360392</ele>
        <time>2026-07-30T08:18:29.045Z</time>
      </trkpt>
      <trkpt lat="36.604001" lon="-6.218706">
        <ele>5.402671</ele>
        <time>2026-07-30T08:18:30.528Z</time>
      </trkpt>
      <trkpt lat="36.604045" lon="-6.218657">
        <ele>5.431537</ele>
        <time>2026-07-30T08:18:31.531Z</time>
      </trkpt>
      <trkpt lat="36.604158" lon="-6.218627">
        <ele>5.488046</ele>
        <time>2026-07-30T08:18:33.495Z</time>
      </trkpt>
      <trkpt lat="36.604240" lon="-6.218668">
        <ele>5.531262</ele>
        <time>2026-07-30T08:18:34.955Z</time>
      </trkpt>
      <trkpt lat="36.604261" lon="-6.218687">
        <ele>5.543956</ele>
        <time>2026-07-30T08:18:35.401Z</time>
      </trkpt>
      <trkpt lat="36.604282" lon="-6.218718">
        <ele>5.559883</ele>
        <time>2026-07-30T08:18:35.958Z</time>
      </trkpt>
      <trkpt lat="36.604438" lon="-6.218724">
        <ele>5.636218</ele>
        <time>2026-07-30T08:18:38.556Z</time>
      </trkpt>
      <trkpt lat="36.605297" lon="-6.218431">
        <ele>6.064255</ele>
        <time>2026-07-30T08:18:53.200Z</time>
      </trkpt>
      <trkpt lat="36.605532" lon="-6.218373">
        <ele>6.171723</ele>
        <time>2026-07-30T08:18:56.915Z</time>
      </trkpt>
      <trkpt lat="36.606556" lon="-6.218311">
        <ele>6.631625</ele>
        <time>2026-07-30T08:19:13.597Z</time>
      </trkpt>
      <trkpt lat="36.606803" lon="-6.218228">
        <ele>6.746387</ele>
        <time>2026-07-30T08:19:18.242Z</time>
      </trkpt>
      <trkpt lat="36.606861" lon="-6.218172">
        <ele>6.779306</ele>
        <time>2026-07-30T08:19:19.588Z</time>
      </trkpt>
      <trkpt lat="36.606956" lon="-6.218093">
        <ele>6.825545</ele>
        <time>2026-07-30T08:19:21.605Z</time>
      </trkpt>
      <trkpt lat="36.607048" lon="-6.218061">
        <ele>6.863433</ele>
        <time>2026-07-30T08:19:23.299Z</time>
      </trkpt>
      <trkpt lat="36.607146" lon="-6.218103">
        <ele>6.904542</ele>
        <time>2026-07-30T08:19:25.141Z</time>
      </trkpt>
      <trkpt lat="36.607160" lon="-6.218122">
        <ele>6.912754</ele>
        <time>2026-07-30T08:19:25.509Z</time>
      </trkpt>
      <trkpt lat="36.607352" lon="-6.218142">
        <ele>6.989178</ele>
        <time>2026-07-30T08:19:28.840Z</time>
      </trkpt>
      <trkpt lat="36.607445" lon="-6.218118">
        <ele>7.026850</ele>
        <time>2026-07-30T08:19:30.486Z</time>
      </trkpt>
      <trkpt lat="36.607604" lon="-6.218008">
        <ele>7.098991</ele>
        <time>2026-07-30T08:19:33.435Z</time>
      </trkpt>
      <trkpt lat="36.608327" lon="-6.217369">
        <ele>7.450619</ele>
        <time>2026-07-30T08:19:48.048Z</time>
      </trkpt>
      <trkpt lat="36.608435" lon="-6.217211">
        <ele>7.494551</ele>
        <time>2026-07-30T08:19:50.435Z</time>
      </trkpt>
      <trkpt lat="36.608461" lon="-6.217095">
        <ele>7.479474</ele>
        <time>2026-07-30T08:19:51.805Z</time>
      </trkpt>
      <trkpt lat="36.608495" lon="-6.217051">
        <ele>7.471828</ele>
        <time>2026-07-30T08:19:52.491Z</time>
      </trkpt>
      <trkpt lat="36.608588" lon="-6.217015">
        <ele>7.456640</ele>
        <time>2026-07-30T08:19:53.852Z</time>
      </trkpt>
      <trkpt lat="36.608636" lon="-6.217026">
        <ele>7.449028</ele>
        <time>2026-07-30T08:19:54.534Z</time>
      </trkpt>
      <trkpt lat="36.608792" lon="-6.216950">
        <ele>7.422905</ele>
        <time>2026-07-30T08:19:56.862Z</time>
      </trkpt>
      <trkpt lat="36.609860" lon="-6.215987">
        <ele>7.215490</ele>
        <time>2026-07-30T08:20:15.507Z</time>
      </trkpt>
      <trkpt lat="36.609964" lon="-6.215897">
        <ele>7.183881</ele>
        <time>2026-07-30T08:20:17.302Z</time>
      </trkpt>
      <trkpt lat="36.610731" lon="-6.215190">
        <ele>6.945711</ele>
        <time>2026-07-30T08:20:30.804Z</time>
      </trkpt>
      <trkpt lat="36.612743" lon="-6.213431">
        <ele>6.295567</ele>
        <time>2026-07-30T08:21:04.496Z</time>
      </trkpt>
      <trkpt lat="36.612973" lon="-6.213230">
        <ele>6.323180</ele>
        <time>2026-07-30T08:21:08.569Z</time>
      </trkpt>
      <trkpt lat="36.613009" lon="-6.213173">
        <ele>6.332394</ele>
        <time>2026-07-30T08:21:09.424Z</time>
      </trkpt>
      <trkpt lat="36.613144" lon="-6.212950">
        <ele>6.367876</ele>
        <time>2026-07-30T08:21:12.869Z</time>
      </trkpt>
      <trkpt lat="36.613164" lon="-6.212825">
        <ele>6.384067</ele>
        <time>2026-07-30T08:21:14.432Z</time>
      </trkpt>
      <trkpt lat="36.613253" lon="-6.212695">
        <ele>6.405773</ele>
        <time>2026-07-30T08:21:16.564Z</time>
      </trkpt>
      <trkpt lat="36.613384" lon="-6.212645">
        <ele>6.427456</ele>
        <time>2026-07-30T08:21:18.720Z</time>
      </trkpt>
      <trkpt lat="36.613488" lon="-6.212673">
        <ele>6.444295</ele>
        <time>2026-07-30T08:21:20.465Z</time>
      </trkpt>
      <trkpt lat="36.613706" lon="-6.212602">
        <ele>6.479955</ele>
        <time>2026-07-30T08:21:24.030Z</time>
      </trkpt>
      <trkpt lat="36.613873" lon="-6.212469">
        <ele>6.511324</ele>
        <time>2026-07-30T08:21:27.064Z</time>
      </trkpt>
      <trkpt lat="36.614126" lon="-6.212243">
        <ele>6.560592</ele>
        <time>2026-07-30T08:21:32.026Z</time>
      </trkpt>
      <trkpt lat="36.614270" lon="-6.212082">
        <ele>6.580509</ele>
        <time>2026-07-30T08:21:35.268Z</time>
      </trkpt>
      <trkpt lat="36.614343" lon="-6.211934">
        <ele>6.591651</ele>
        <time>2026-07-30T08:21:37.618Z</time>
      </trkpt>
      <trkpt lat="36.614357" lon="-6.211835">
        <ele>6.598099</ele>
        <time>2026-07-30T08:21:38.912Z</time>
      </trkpt>
      <trkpt lat="36.614375" lon="-6.211790">
        <ele>6.601324</ele>
        <time>2026-07-30T08:21:39.582Z</time>
      </trkpt>
      <trkpt lat="36.614466" lon="-6.211686">
        <ele>6.611192</ele>
        <time>2026-07-30T08:21:41.521Z</time>
      </trkpt>
      <trkpt lat="36.614526" lon="-6.211662">
        <ele>6.616228</ele>
        <time>2026-07-30T08:21:42.483Z</time>
      </trkpt>
      <trkpt lat="36.614532" lon="-6.211661">
        <ele>6.616711</ele>
        <time>2026-07-30T08:21:42.581Z</time>
      </trkpt>
      <trkpt lat="36.614569" lon="-6.211658">
        <ele>6.619674</ele>
        <time>2026-07-30T08:21:43.134Z</time>
      </trkpt>
      <trkpt lat="36.614640" lon="-6.211676">
        <ele>6.625464</ele>
        <time>2026-07-30T08:21:44.278Z</time>
      </trkpt>
      <trkpt lat="36.614967" lon="-6.211510">
        <ele>6.653681</ele>
        <time>2026-07-30T08:21:49.527Z</time>
      </trkpt>
      <trkpt lat="36.617106" lon="-6.209656">
        <ele>6.442610</ele>
        <time>2026-07-30T08:22:27.257Z</time>
      </trkpt>
      <trkpt lat="36.618714" lon="-6.208263">
        <ele>6.093858</ele>
        <time>2026-07-30T08:22:53.703Z</time>
      </trkpt>
      <trkpt lat="36.618943" lon="-6.208060">
        <ele>6.269985</ele>
        <time>2026-07-30T08:22:58.157Z</time>
      </trkpt>
      <trkpt lat="36.619637" lon="-6.207447">
        <ele>6.803108</ele>
        <time>2026-07-30T08:23:13.225Z</time>
      </trkpt>
      <trkpt lat="36.619890" lon="-6.207231">
        <ele>6.995310</ele>
        <time>2026-07-30T08:23:18.895Z</time>
      </trkpt>
      <trkpt lat="36.620022" lon="-6.207064">
        <ele>7.169201</ele>
        <time>2026-07-30T08:23:22.695Z</time>
      </trkpt>
      <trkpt lat="36.620145" lon="-6.206745">
        <ele>7.675047</ele>
        <time>2026-07-30T08:23:28.840Z</time>
      </trkpt>
      <trkpt lat="36.620154" lon="-6.206692">
        <ele>7.752479</ele>
        <time>2026-07-30T08:23:29.833Z</time>
      </trkpt>
      <trkpt lat="36.620227" lon="-6.206535">
        <ele>8.011822</ele>
        <time>2026-07-30T08:23:33.152Z</time>
      </trkpt>
      <trkpt lat="36.620283" lon="-6.206477">
        <ele>8.141508</ele>
        <time>2026-07-30T08:23:34.832Z</time>
      </trkpt>
      <trkpt lat="36.620419" lon="-6.206416">
        <ele>8.398921</ele>
        <time>2026-07-30T08:23:38.224Z</time>
      </trkpt>
      <trkpt lat="36.620493" lon="-6.206418">
        <ele>8.530736</ele>
        <time>2026-07-30T08:23:39.959Z</time>
      </trkpt>
      <trkpt lat="36.620701" lon="-6.206400">
        <ele>8.902049</ele>
        <time>2026-07-30T08:23:44.695Z</time>
      </trkpt>
      <trkpt lat="36.620924" lon="-6.206314">
        <ele>9.317771</ele>
        <time>2026-07-30T08:23:49.993Z</time>
      </trkpt>
      <trkpt lat="36.621282" lon="-6.206035">
        <ele>10.069766</ele>
        <time>2026-07-30T08:23:59.658Z</time>
      </trkpt>
      <trkpt lat="36.624249" lon="-6.203426">
        <ele>15.781040</ele>
        <time>2026-07-30T08:25:15.166Z</time>
      </trkpt>
      <trkpt lat="36.624341" lon="-6.203307">
        <ele>16.031154</ele>
        <time>2026-07-30T08:25:18.199Z</time>
      </trkpt>
      <trkpt lat="36.624456" lon="-6.202980">
        <ele>16.732941</ele>
        <time>2026-07-30T08:25:24.915Z</time>
      </trkpt>
      <trkpt lat="36.624480" lon="-6.202874">
        <ele>16.949438</ele>
        <time>2026-07-30T08:25:27.002Z</time>
      </trkpt>
      <trkpt lat="36.624537" lon="-6.202768">
        <ele>17.200248</ele>
        <time>2026-07-30T08:25:29.462Z</time>
      </trkpt>
      <trkpt lat="36.624673" lon="-6.202661">
        <ele>17.594195</ele>
        <time>2026-07-30T08:25:33.395Z</time>
      </trkpt>
      <trkpt lat="36.624758" lon="-6.202643">
        <ele>17.805368</ele>
        <time>2026-07-30T08:25:35.531Z</time>
      </trkpt>
      <trkpt lat="36.624844" lon="-6.202655">
        <ele>18.017322</ele>
        <time>2026-07-30T08:25:37.675Z</time>
      </trkpt>
      <trkpt lat="36.624969" lon="-6.202681">
        <ele>18.327717</ele>
        <time>2026-07-30T08:25:40.890Z</time>
      </trkpt>
      <trkpt lat="36.625197" lon="-6.202600">
        <ele>18.908406</ele>
        <time>2026-07-30T08:25:46.997Z</time>
      </trkpt>
      <trkpt lat="36.625355" lon="-6.202486">
        <ele>19.355588</ele>
        <time>2026-07-30T08:25:51.824Z</time>
      </trkpt>
      <trkpt lat="36.628439" lon="-6.199798">
        <ele>29.728349</ele>
        <time>2026-07-30T08:27:29.805Z</time>
      </trkpt>
      <trkpt lat="36.628898" lon="-6.199368">
        <ele>30.958575</ele>
        <time>2026-07-30T08:27:44.708Z</time>
      </trkpt>
      <trkpt lat="36.629026" lon="-6.199200">
        <ele>31.279009</ele>
        <time>2026-07-30T08:27:49.107Z</time>
      </trkpt>
      <trkpt lat="36.629265" lon="-6.198694">
        <ele>32.091158</ele>
        <time>2026-07-30T08:27:59.463Z</time>
      </trkpt>
      <trkpt lat="36.629329" lon="-6.198421">
        <ele>32.484564</ele>
        <time>2026-07-30T08:28:04.202Z</time>
      </trkpt>
      <trkpt lat="36.629338" lon="-6.198282">
        <ele>32.677458</ele>
        <time>2026-07-30T08:28:06.408Z</time>
      </trkpt>
      <trkpt lat="36.629432" lon="-6.197944">
        <ele>33.172269</ele>
        <time>2026-07-30T08:28:11.975Z</time>
      </trkpt>
      <trkpt lat="36.629513" lon="-6.197423">
        <ele>33.585276</ele>
        <time>2026-07-30T08:28:19.935Z</time>
      </trkpt>
      <trkpt lat="36.629545" lon="-6.191902">
        <ele>35.423031</ele>
        <time>2026-07-30T08:29:32.638Z</time>
      </trkpt>
      <trkpt lat="36.629560" lon="-6.189732">
        <ele>35.315743</ele>
        <time>2026-07-30T08:29:58.640Z</time>
      </trkpt>
      <trkpt lat="36.629543" lon="-6.188405">
        <ele>34.985514</ele>
        <time>2026-07-30T08:30:12.400Z</time>
      </trkpt>
      <trkpt lat="36.629443" lon="-6.186948">
        <ele>34.505210</ele>
        <time>2026-07-30T08:30:27.754Z</time>
      </trkpt>
      <trkpt lat="36.629257" lon="-6.184883">
        <ele>34.779555</ele>
        <time>2026-07-30T08:30:53.121Z</time>
      </trkpt>
      <trkpt lat="36.629197" lon="-6.183892">
        <ele>35.276563</ele>
        <time>2026-07-30T08:31:07.958Z</time>
      </trkpt>
      <trkpt lat="36.629146" lon="-6.183104">
        <ele>35.943893</ele>
        <time>2026-07-30T08:31:20.200Z</time>
      </trkpt>
      <trkpt lat="36.629118" lon="-6.181971">
        <ele>36.854298</ele>
        <time>2026-07-30T08:31:38.254Z</time>
      </trkpt>
      <trkpt lat="36.629132" lon="-6.181328">
        <ele>37.117978</ele>
        <time>2026-07-30T08:31:47.341Z</time>
      </trkpt>
      <trkpt lat="36.629145" lon="-6.181123">
        <ele>37.202275</ele>
        <time>2026-07-30T08:31:50.140Z</time>
      </trkpt>
      <trkpt lat="36.629291" lon="-6.178880">
        <ele>37.973956</ele>
        <time>2026-07-30T08:32:18.532Z</time>
      </trkpt>
      <trkpt lat="36.629498" lon="-6.175681">
        <ele>38.495845</ele>
        <time>2026-07-30T08:33:00.730Z</time>
      </trkpt>
      <trkpt lat="36.629621" lon="-6.174015">
        <ele>37.498588</ele>
        <time>2026-07-30T08:33:17.464Z</time>
      </trkpt>
      <trkpt lat="36.629593" lon="-6.173371">
        <ele>37.012408</ele>
        <time>2026-07-30T08:33:23.562Z</time>
      </trkpt>
      <trkpt lat="36.629346" lon="-6.170788">
        <ele>34.394263</ele>
        <time>2026-07-30T08:33:48.152Z</time>
      </trkpt>
      <trkpt lat="36.629070" lon="-6.167585">
        <ele>30.982118</ele>
        <time>2026-07-30T08:34:18.622Z</time>
      </trkpt>
      <trkpt lat="36.628987" lon="-6.166144">
        <ele>29.349742</ele>
        <time>2026-07-30T08:34:32.251Z</time>
      </trkpt>
      <trkpt lat="36.628614" lon="-6.161801">
        <ele>23.734452</ele>
        <time>2026-07-30T08:35:11.526Z</time>
      </trkpt>
      <trkpt lat="36.628344" lon="-6.158664">
        <ele>22.768271</ele>
        <time>2026-07-30T08:35:46.841Z</time>
      </trkpt>
      <trkpt lat="36.628178" lon="-6.156723">
        <ele>23.630562</ele>
        <time>2026-07-30T08:36:09.544Z</time>
      </trkpt>
      <trkpt lat="36.628099" lon="-6.155802">
        <ele>24.766291</ele>
        <time>2026-07-30T08:36:27.065Z</time>
      </trkpt>
      <trkpt lat="36.627968" lon="-6.155063">
        <ele>25.627915</ele>
        <time>2026-07-30T08:36:43.771Z</time>
      </trkpt>
      <trkpt lat="36.627747" lon="-6.154377">
        <ele>26.348318</ele>
        <time>2026-07-30T08:36:57.736Z</time>
      </trkpt>
      <trkpt lat="36.627445" lon="-6.153810">
        <ele>27.011520</ele>
        <time>2026-07-30T08:37:07.824Z</time>
      </trkpt>
      <trkpt lat="36.627359" lon="-6.153649">
        <ele>27.200003</ele>
        <time>2026-07-30T08:37:10.231Z</time>
      </trkpt>
      <trkpt lat="36.626976" lon="-6.152849">
        <ele>27.149459</ele>
        <time>2026-07-30T08:37:19.948Z</time>
      </trkpt>
      <trkpt lat="36.626838" lon="-6.152248">
        <ele>26.702358</ele>
        <time>2026-07-30T08:37:25.914Z</time>
      </trkpt>
      <trkpt lat="36.626680" lon="-6.151381">
        <ele>26.066467</ele>
        <time>2026-07-30T08:37:34.546Z</time>
      </trkpt>
      <trkpt lat="36.626418" lon="-6.150609">
        <ele>25.083025</ele>
        <time>2026-07-30T08:37:42.759Z</time>
      </trkpt>
      <trkpt lat="36.626019" lon="-6.149922">
        <ele>23.996506</ele>
        <time>2026-07-30T08:37:50.859Z</time>
      </trkpt>
      <trkpt lat="36.625736" lon="-6.149244">
        <ele>22.920056</ele>
        <time>2026-07-30T08:37:57.522Z</time>
      </trkpt>
      <trkpt lat="36.625598" lon="-6.148789">
        <ele>21.339016</ele>
        <time>2026-07-30T08:38:01.495Z</time>
      </trkpt>
      <trkpt lat="36.625529" lon="-6.148266">
        <ele>19.616216</ele>
        <time>2026-07-30T08:38:05.675Z</time>
      </trkpt>
      <trkpt lat="36.625509" lon="-6.147751">
        <ele>17.940276</ele>
        <time>2026-07-30T08:38:09.634Z</time>
      </trkpt>
      <trkpt lat="36.625598" lon="-6.147184">
        <ele>16.062353</ele>
        <time>2026-07-30T08:38:13.997Z</time>
      </trkpt>
      <trkpt lat="36.625798" lon="-6.146523">
        <ele>13.716500</ele>
        <time>2026-07-30T08:38:19.301Z</time>
      </trkpt>
      <trkpt lat="36.626060" lon="-6.145931">
        <ele>11.465260</ele>
        <time>2026-07-30T08:38:24.440Z</time>
      </trkpt>
      <trkpt lat="36.626191" lon="-6.145687">
        <ele>10.487692</ele>
        <time>2026-07-30T08:38:26.717Z</time>
      </trkpt>
      <trkpt lat="36.626614" lon="-6.144777">
        <ele>8.092259</ele>
        <time>2026-07-30T08:38:35.363Z</time>
      </trkpt>
      <trkpt lat="36.628680" lon="-6.142067">
        <ele>7.692509</ele>
        <time>2026-07-30T08:39:19.895Z</time>
      </trkpt>
      <trkpt lat="36.629896" lon="-6.140218">
        <ele>10.597481</ele>
        <time>2026-07-30T08:40:04.673Z</time>
      </trkpt>
      <trkpt lat="36.630563" lon="-6.139190">
        <ele>9.897196</ele>
        <time>2026-07-30T08:40:21.418Z</time>
      </trkpt>
      <trkpt lat="36.631329" lon="-6.137914">
        <ele>8.260402</ele>
        <time>2026-07-30T08:40:34.716Z</time>
      </trkpt>
      <trkpt lat="36.631667" lon="-6.137528">
        <ele>7.438311</ele>
        <time>2026-07-30T08:40:39.470Z</time>
      </trkpt>
      <trkpt lat="36.633450" lon="-6.135941">
        <ele>4.813871</ele>
        <time>2026-07-30T08:41:06.642Z</time>
      </trkpt>
      <trkpt lat="36.634502" lon="-6.135023">
        <ele>4.251908</ele>
        <time>2026-07-30T08:41:24.047Z</time>
      </trkpt>
      <trkpt lat="36.635061" lon="-6.134599">
        <ele>4.118553</ele>
        <time>2026-07-30T08:41:33.067Z</time>
      </trkpt>
      <trkpt lat="36.636153" lon="-6.133768">
        <ele>4.262668</ele>
        <time>2026-07-30T08:41:53.386Z</time>
      </trkpt>
      <trkpt lat="36.637030" lon="-6.133107">
        <ele>4.491591</ele>
        <time>2026-07-30T08:42:10.036Z</time>
      </trkpt>
      <trkpt lat="36.636788" lon="-6.132887">
        <ele>4.415442</ele>
        <time>2026-07-30T08:42:14.666Z</time>
      </trkpt>
      <trkpt lat="36.636709" lon="-6.132816">
        <ele>4.390681</ele>
        <time>2026-07-30T08:42:16.118Z</time>
      </trkpt>
      <trkpt lat="36.636063" lon="-6.132230">
        <ele>4.187558</ele>
        <time>2026-07-30T08:42:26.963Z</time>
      </trkpt>
      <trkpt lat="36.635448" lon="-6.131694">
        <ele>3.932189</ele>
        <time>2026-07-30T08:42:36.734Z</time>
      </trkpt>
      <trkpt lat="36.634584" lon="-6.130931">
        <ele>3.370502</ele>
        <time>2026-07-30T08:42:50.648Z</time>
      </trkpt>
      <trkpt lat="36.632804" lon="-6.129271">
        <ele>2.552128</ele>
        <time>2026-07-30T08:43:20.484Z</time>
      </trkpt>
      <trkpt lat="36.632302" lon="-6.128815">
        <ele>2.708356</ele>
        <time>2026-07-30T08:43:30.282Z</time>
      </trkpt>
      <trkpt lat="36.631644" lon="-6.128259">
        <ele>2.976687</ele>
        <time>2026-07-30T08:43:43.219Z</time>
      </trkpt>
      <trkpt lat="36.631581" lon="-6.128202">
        <ele>3.002965</ele>
        <time>2026-07-30T08:43:44.591Z</time>
      </trkpt>
      <trkpt lat="36.631538" lon="-6.128164">
        <ele>3.020757</ele>
        <time>2026-07-30T08:43:45.549Z</time>
      </trkpt>
      <trkpt lat="36.630994" lon="-6.127675">
        <ele>3.140250</ele>
        <time>2026-07-30T08:43:58.003Z</time>
      </trkpt>
      <trkpt lat="36.627755" lon="-6.124762">
        <ele>3.024224</ele>
        <time>2026-07-30T08:44:53.925Z</time>
      </trkpt>
      <trkpt lat="36.622271" lon="-6.120079">
        <ele>5.496976</ele>
        <time>2026-07-30T08:46:44.127Z</time>
      </trkpt>
      <trkpt lat="36.623312" lon="-6.119129">
        <ele>6.011493</ele>
        <time>2026-07-30T08:47:05.724Z</time>
      </trkpt>
      <trkpt lat="36.624652" lon="-6.117270">
        <ele>6.254363</ele>
        <time>2026-07-30T08:47:36.862Z</time>
      </trkpt>
      <trkpt lat="36.628273" lon="-6.113427">
        <ele>3.259361</ele>
        <time>2026-07-30T08:48:37.535Z</time>
      </trkpt>
      <trkpt lat="36.628797" lon="-6.112871">
        <ele>2.872228</ele>
        <time>2026-07-30T08:48:46.675Z</time>
      </trkpt>
      <trkpt lat="36.631352" lon="-6.108164">
        <ele>3.145791</ele>
        <time>2026-07-30T08:49:55.697Z</time>
      </trkpt>
      <trkpt lat="36.631585" lon="-6.107590">
        <ele>3.217366</ele>
        <time>2026-07-30T08:50:03.789Z</time>
      </trkpt>
      <trkpt lat="36.631623" lon="-6.107505">
        <ele>3.228193</ele>
        <time>2026-07-30T08:50:05.001Z</time>
      </trkpt>
      <trkpt lat="36.631694" lon="-6.107349">
        <ele>3.248148</ele>
        <time>2026-07-30T08:50:07.267Z</time>
      </trkpt>
      <trkpt lat="36.632161" lon="-6.106680">
        <ele>3.379200</ele>
        <time>2026-07-30T08:50:18.460Z</time>
      </trkpt>
      <trkpt lat="36.635601" lon="-6.101749">
        <ele>4.359846</ele>
        <time>2026-07-30T08:51:40.052Z</time>
      </trkpt>
      <trkpt lat="36.636530" lon="-6.100553">
        <ele>4.506879</ele>
        <time>2026-07-30T08:52:00.521Z</time>
      </trkpt>
      <trkpt lat="36.637992" lon="-6.099219">
        <ele>4.712082</ele>
        <time>2026-07-30T08:52:28.259Z</time>
      </trkpt>
      <trkpt lat="36.638832" lon="-6.098052">
        <ele>5.057271</ele>
        <time>2026-07-30T08:52:47.648Z</time>
      </trkpt>
      <trkpt lat="36.639417" lon="-6.097091">
        <ele>5.445633</ele>
        <time>2026-07-30T08:53:03.738Z</time>
      </trkpt>
      <trkpt lat="36.640134" lon="-6.095777">
        <ele>6.198962</ele>
        <time>2026-07-30T08:53:26.063Z</time>
      </trkpt>
      <trkpt lat="36.640636" lon="-6.094481">
        <ele>6.588207</ele>
        <time>2026-07-30T08:53:45.771Z</time>
      </trkpt>
      <trkpt lat="36.641091" lon="-6.093340">
        <ele>6.702540</ele>
        <time>2026-07-30T08:54:01.274Z</time>
      </trkpt>
      <trkpt lat="36.641339" lon="-6.092954">
        <ele>6.489900</ele>
        <time>2026-07-30T08:54:06.421Z</time>
      </trkpt>
      <trkpt lat="36.641984" lon="-6.092310">
        <ele>6.046982</ele>
        <time>2026-07-30T08:54:16.624Z</time>
      </trkpt>
      <trkpt lat="36.642093" lon="-6.092199">
        <ele>5.971545</ele>
        <time>2026-07-30T08:54:18.345Z</time>
      </trkpt>
      <trkpt lat="36.643990" lon="-6.090276">
        <ele>5.624226</ele>
        <time>2026-07-30T08:54:53.306Z</time>
      </trkpt>
      <trkpt lat="36.645971" lon="-6.087837">
        <ele>6.518720</ele>
        <time>2026-07-30T08:55:39.108Z</time>
      </trkpt>
      <trkpt lat="36.646182" lon="-6.087631">
        <ele>6.618966</ele>
        <time>2026-07-30T08:55:43.485Z</time>
      </trkpt>
      <trkpt lat="36.646387" lon="-6.087535">
        <ele>6.673610</ele>
        <time>2026-07-30T08:55:47.025Z</time>
      </trkpt>
      <trkpt lat="36.648184" lon="-6.087016">
        <ele>6.865872</ele>
        <time>2026-07-30T08:56:15.566Z</time>
      </trkpt>
      <trkpt lat="36.648354" lon="-6.086933">
        <ele>6.818826</ele>
        <time>2026-07-30T08:56:18.071Z</time>
      </trkpt>
      <trkpt lat="36.648457" lon="-6.086825">
        <ele>6.784143</ele>
        <time>2026-07-30T08:56:19.894Z</time>
      </trkpt>
      <trkpt lat="36.648477" lon="-6.086692">
        <ele>6.756168</ele>
        <time>2026-07-30T08:56:21.353Z</time>
      </trkpt>
      <trkpt lat="36.648447" lon="-6.086469">
        <ele>6.709423</ele>
        <time>2026-07-30T08:56:23.721Z</time>
      </trkpt>
      <trkpt lat="36.648375" lon="-6.086201">
        <ele>6.650994</ele>
        <time>2026-07-30T08:56:26.739Z</time>
      </trkpt>
      <trkpt lat="36.648253" lon="-6.085907">
        <ele>6.582565</ele>
        <time>2026-07-30T08:56:30.302Z</time>
      </trkpt>
      <trkpt lat="36.648026" lon="-6.085524">
        <ele>6.484123</ele>
        <time>2026-07-30T08:56:35.518Z</time>
      </trkpt>
      <trkpt lat="36.648002" lon="-6.085427">
        <ele>6.463137</ele>
        <time>2026-07-30T08:56:36.596Z</time>
      </trkpt>
      <trkpt lat="36.648014" lon="-6.085328">
        <ele>6.445361</ele>
        <time>2026-07-30T08:56:37.673Z</time>
      </trkpt>
      <trkpt lat="36.648038" lon="-6.085258">
        <ele>6.456472</ele>
        <time>2026-07-30T08:56:38.514Z</time>
      </trkpt>
      <trkpt lat="36.648688" lon="-6.084424">
        <ele>6.626174</ele>
        <time>2026-07-30T08:56:52.818Z</time>
      </trkpt>
      <trkpt lat="36.648854" lon="-6.084123">
        <ele>6.679483</ele>
        <time>2026-07-30T08:56:57.775Z</time>
      </trkpt>
      <trkpt lat="36.648982" lon="-6.083762">
        <ele>6.737088</ele>
        <time>2026-07-30T08:57:03.164Z</time>
      </trkpt>
      <trkpt lat="36.648972" lon="-6.083645">
        <ele>6.754261</ele>
        <time>2026-07-30T08:57:04.748Z</time>
      </trkpt>
      <trkpt lat="36.648923" lon="-6.083572">
        <ele>6.768152</ele>
        <time>2026-07-30T08:57:05.995Z</time>
      </trkpt>
      <trkpt lat="36.648888" lon="-6.083556">
        <ele>6.769557</ele>
        <time>2026-07-30T08:57:06.614Z</time>
      </trkpt>
      <trkpt lat="36.648802" lon="-6.083447">
        <ele>6.758373</ele>
        <time>2026-07-30T08:57:08.609Z</time>
      </trkpt>
      <trkpt lat="36.648785" lon="-6.083366">
        <ele>6.752249</ele>
        <time>2026-07-30T08:57:09.690Z</time>
      </trkpt>
      <trkpt lat="36.648806" lon="-6.083238">
        <ele>6.742692</ele>
        <time>2026-07-30T08:57:11.325Z</time>
      </trkpt>
      <trkpt lat="36.648880" lon="-6.083145">
        <ele>6.733110</ele>
        <time>2026-07-30T08:57:12.922Z</time>
      </trkpt>
      <trkpt lat="36.649012" lon="-6.083122">
        <ele>6.720958</ele>
        <time>2026-07-30T08:57:14.861Z</time>
      </trkpt>
      <trkpt lat="36.649114" lon="-6.083202">
        <ele>6.709970</ele>
        <time>2026-07-30T08:57:16.559Z</time>
      </trkpt>
      <trkpt lat="36.649145" lon="-6.083268">
        <ele>6.704375</ele>
        <time>2026-07-30T08:57:17.400Z</time>
      </trkpt>
      <trkpt lat="36.649156" lon="-6.083334">
        <ele>6.699444</ele>
        <time>2026-07-30T08:57:18.119Z</time>
      </trkpt>
      <trkpt lat="36.649206" lon="-6.083463">
        <ele>6.688964</ele>
        <time>2026-07-30T08:57:19.626Z</time>
      </trkpt>
      <trkpt lat="36.649347" lon="-6.083592">
        <ele>6.673017</ele>
        <time>2026-07-30T08:57:21.844Z</time>
      </trkpt>
      <trkpt lat="36.649584" lon="-6.083637">
        <ele>6.651158</ele>
        <time>2026-07-30T08:57:25.040Z</time>
      </trkpt>
      <trkpt lat="36.650427" lon="-6.083806">
        <ele>6.875286</ele>
        <time>2026-07-30T08:57:37.463Z</time>
      </trkpt>
      <trkpt lat="36.651213" lon="-6.083968">
        <ele>7.446866</ele>
        <time>2026-07-30T08:57:50.844Z</time>
      </trkpt>
      <trkpt lat="36.651358" lon="-6.083932">
        <ele>7.552941</ele>
        <time>2026-07-30T08:57:53.876Z</time>
      </trkpt>
      <trkpt lat="36.651545" lon="-6.083788">
        <ele>7.710645</ele>
        <time>2026-07-30T08:57:58.726Z</time>
      </trkpt>
      <trkpt lat="36.651645" lon="-6.083734">
        <ele>7.788834</ele>
        <time>2026-07-30T08:58:01.229Z</time>
      </trkpt>
      <trkpt lat="36.652821" lon="-6.083560">
        <ele>9.258431</ele>
        <time>2026-07-30T08:58:25.363Z</time>
      </trkpt>
      <trkpt lat="36.653061" lon="-6.083451">
        <ele>9.595085</ele>
        <time>2026-07-30T08:58:30.324Z</time>
      </trkpt>
      <trkpt lat="36.653196" lon="-6.083374">
        <ele>9.790753</ele>
        <time>2026-07-30T08:58:33.244Z</time>
      </trkpt>
      <trkpt lat="36.653754" lon="-6.082934">
        <ele>10.706995</ele>
        <time>2026-07-30T08:58:46.223Z</time>
      </trkpt>
      <trkpt lat="36.653939" lon="-6.082687">
        <ele>11.106161</ele>
        <time>2026-07-30T08:58:51.410Z</time>
      </trkpt>
      <trkpt lat="36.653967" lon="-6.082634">
        <ele>11.181123</ele>
        <time>2026-07-30T08:58:52.397Z</time>
      </trkpt>
      <trkpt lat="36.654028" lon="-6.082511">
        <ele>11.351940</ele>
        <time>2026-07-30T08:58:54.752Z</time>
      </trkpt>
      <trkpt lat="36.654165" lon="-6.082222">
        <ele>11.748470</ele>
        <time>2026-07-30T08:59:00.442Z</time>
      </trkpt>
      <trkpt lat="36.654245" lon="-6.082055">
        <ele>11.978234</ele>
        <time>2026-07-30T08:59:03.824Z</time>
      </trkpt>
      <trkpt lat="36.655029" lon="-6.080385">
        <ele>15.341327</ele>
        <time>2026-07-30T08:59:37.647Z</time>
      </trkpt>
      <trkpt lat="36.655390" lon="-6.079643">
        <ele>17.186261</ele>
        <time>2026-07-30T08:59:55.400Z</time>
      </trkpt>
      <trkpt lat="36.656807" lon="-6.076638">
        <ele>31.310371</ele>
        <time>2026-07-30T09:01:33.854Z</time>
      </trkpt>
      <trkpt lat="36.657264" lon="-6.075669">
        <ele>36.676311</ele>
        <time>2026-07-30T09:02:11.362Z</time>
      </trkpt>
      <trkpt lat="36.657534" lon="-6.075168">
        <ele>39.332817</ele>
        <time>2026-07-30T09:02:31.705Z</time>
      </trkpt>
      <trkpt lat="36.657818" lon="-6.074756">
        <ele>41.679530</ele>
        <time>2026-07-30T09:02:49.345Z</time>
      </trkpt>
      <trkpt lat="36.658465" lon="-6.074456">
        <ele>45.396998</ele>
        <time>2026-07-30T09:03:14.947Z</time>
      </trkpt>
      <trkpt lat="36.658800" lon="-6.073987">
        <ele>46.111971</ele>
        <time>2026-07-30T09:03:29.254Z</time>
      </trkpt>
      <trkpt lat="36.659217" lon="-6.073490">
        <ele>44.176502</ele>
        <time>2026-07-30T09:03:39.351Z</time>
      </trkpt>
      <trkpt lat="36.663491" lon="-6.072222">
        <ele>28.346274</ele>
        <time>2026-07-30T09:04:20.828Z</time>
      </trkpt>
      <trkpt lat="36.663979" lon="-6.072077">
        <ele>28.599937</ele>
        <time>2026-07-30T09:04:26.676Z</time>
      </trkpt>
      <trkpt lat="36.664048" lon="-6.072057">
        <ele>28.843868</ele>
        <time>2026-07-30T09:04:27.665Z</time>
      </trkpt>
      <trkpt lat="36.669832" lon="-6.070346">
        <ele>49.667205</ele>
        <time>2026-07-30T09:07:30.236Z</time>
      </trkpt>
      <trkpt lat="36.672480" lon="-6.069563">
        <ele>58.608305</ele>
        <time>2026-07-30T09:08:50.707Z</time>
      </trkpt>
      <trkpt lat="36.674123" lon="-6.068944">
        <ele>57.193289</ele>
        <time>2026-07-30T09:09:11.260Z</time>
      </trkpt>
      <trkpt lat="36.675059" lon="-6.068354">
        <ele>53.280131</ele>
        <time>2026-07-30T09:09:21.689Z</time>
      </trkpt>
      <trkpt lat="36.676546" lon="-6.067417">
        <ele>47.036444</ele>
        <time>2026-07-30T09:09:37.504Z</time>
      </trkpt>
      <trkpt lat="36.676781" lon="-6.067405">
        <ele>46.171940</ele>
        <time>2026-07-30T09:09:39.864Z</time>
      </trkpt>
      <trkpt lat="36.677119" lon="-6.067482">
        <ele>44.909001</ele>
        <time>2026-07-30T09:09:43.439Z</time>
      </trkpt>
      <trkpt lat="36.677866" lon="-6.067650">
        <ele>42.350237</ele>
        <time>2026-07-30T09:09:51.721Z</time>
      </trkpt>
      <trkpt lat="36.678296" lon="-6.067748">
        <ele>40.983338</ele>
        <time>2026-07-30T09:09:56.472Z</time>
      </trkpt>
      <trkpt lat="36.678469" lon="-6.067880">
        <ele>40.349112</ele>
        <time>2026-07-30T09:09:58.599Z</time>
      </trkpt>
      <trkpt lat="36.679946" lon="-6.069521">
        <ele>33.641139</ele>
        <time>2026-07-30T09:10:17.643Z</time>
      </trkpt>
      <trkpt lat="36.681652" lon="-6.071436">
        <ele>28.613672</ele>
        <time>2026-07-30T09:10:43.152Z</time>
      </trkpt>
      <trkpt lat="36.681888" lon="-6.071707">
        <ele>28.364639</ele>
        <time>2026-07-30T09:10:47.040Z</time>
      </trkpt>
      <trkpt lat="36.682218" lon="-6.072065">
        <ele>28.125073</ele>
        <time>2026-07-30T09:10:52.678Z</time>
      </trkpt>
      <trkpt lat="36.682536" lon="-6.072430">
        <ele>27.888356</ele>
        <time>2026-07-30T09:10:58.713Z</time>
      </trkpt>
      <trkpt lat="36.682668" lon="-6.072574">
        <ele>27.792299</ele>
        <time>2026-07-30T09:11:01.249Z</time>
      </trkpt>
      <trkpt lat="36.683060" lon="-6.073056">
        <ele>27.460770</ele>
        <time>2026-07-30T09:11:09.199Z</time>
      </trkpt>
      <trkpt lat="36.683490" lon="-6.073812">
        <ele>26.662137</ele>
        <time>2026-07-30T09:11:19.384Z</time>
      </trkpt>
      <trkpt lat="36.683532" lon="-6.073916">
        <ele>26.561802</ele>
        <time>2026-07-30T09:11:20.564Z</time>
      </trkpt>
      <trkpt lat="36.683602" lon="-6.074083">
        <ele>26.399433</ele>
        <time>2026-07-30T09:11:22.401Z</time>
      </trkpt>
      <trkpt lat="36.683704" lon="-6.074353">
        <ele>26.142261</ele>
        <time>2026-07-30T09:11:25.175Z</time>
      </trkpt>
      <trkpt lat="36.683732" lon="-6.074428">
        <ele>26.070977</ele>
        <time>2026-07-30T09:11:25.943Z</time>
      </trkpt>
      <trkpt lat="36.684075" lon="-6.075448">
        <ele>24.231716</ele>
        <time>2026-07-30T09:11:35.580Z</time>
      </trkpt>
      <trkpt lat="36.684090" lon="-6.075493">
        <ele>24.110793</ele>
        <time>2026-07-30T09:11:35.989Z</time>
      </trkpt>
      <trkpt lat="36.684337" lon="-6.076241">
        <ele>22.103549</ele>
        <time>2026-07-30T09:11:42.528Z</time>
      </trkpt>
      <trkpt lat="36.684385" lon="-6.076392">
        <ele>21.700503</ele>
        <time>2026-07-30T09:11:43.830Z</time>
      </trkpt>
      <trkpt lat="36.684456" lon="-6.076616">
        <ele>21.102841</ele>
        <time>2026-07-30T09:11:45.753Z</time>
      </trkpt>
      <trkpt lat="36.684602" lon="-6.077086">
        <ele>19.839339</ele>
        <time>2026-07-30T09:11:49.739Z</time>
      </trkpt>
      <trkpt lat="36.684694" lon="-6.077423">
        <ele>18.890056</ele>
        <time>2026-07-30T09:11:52.555Z</time>
      </trkpt>
      <trkpt lat="36.684899" lon="-6.078160">
        <ele>16.809924</ele>
        <time>2026-07-30T09:11:58.688Z</time>
      </trkpt>
      <trkpt lat="36.685079" lon="-6.078802">
        <ele>14.996369</ele>
        <time>2026-07-30T09:12:04.215Z</time>
      </trkpt>
      <trkpt lat="36.685233" lon="-6.079307">
        <ele>13.838752</ele>
        <time>2026-07-30T09:12:08.833Z</time>
      </trkpt>
      <trkpt lat="36.685359" lon="-6.079484">
        <ele>13.574059</ele>
        <time>2026-07-30T09:12:10.911Z</time>
      </trkpt>
      <trkpt lat="36.685526" lon="-6.079600">
        <ele>13.307466</ele>
        <time>2026-07-30T09:12:12.999Z</time>
      </trkpt>
      <trkpt lat="36.685765" lon="-6.079665">
        <ele>12.966321</ele>
        <time>2026-07-30T09:12:15.697Z</time>
      </trkpt>
      <trkpt lat="36.686069" lon="-6.079711">
        <ele>12.539253</ele>
        <time>2026-07-30T09:12:19.203Z</time>
      </trkpt>
      <trkpt lat="36.686102" lon="-6.079715">
        <ele>12.493014</ele>
        <time>2026-07-30T09:12:19.583Z</time>
      </trkpt>
      <trkpt lat="36.686269" lon="-6.079758">
        <ele>12.255202</ele>
        <time>2026-07-30T09:12:21.704Z</time>
      </trkpt>
      <trkpt lat="36.686207" lon="-6.080086">
        <ele>11.878328</ele>
        <time>2026-07-30T09:12:25.313Z</time>
      </trkpt>
      <trkpt lat="36.686166" lon="-6.080424">
        <ele>11.542285</ele>
        <time>2026-07-30T09:12:29.232Z</time>
      </trkpt>
      <trkpt lat="36.686158" lon="-6.080494">
        <ele>11.557430</ele>
        <time>2026-07-30T09:12:30.007Z</time>
      </trkpt>
      <trkpt lat="36.686122" lon="-6.080797">
        <ele>11.623037</ele>
        <time>2026-07-30T09:12:33.598Z</time>
      </trkpt>
      <trkpt lat="36.686031" lon="-6.081564">
        <ele>11.789108</ele>
        <time>2026-07-30T09:12:43.056Z</time>
      </trkpt>
      <trkpt lat="36.685938" lon="-6.082387">
        <ele>11.967126</ele>
        <time>2026-07-30T09:12:55.032Z</time>
      </trkpt>
      <trkpt lat="36.685911" lon="-6.082668">
        <ele>12.019096</ele>
        <time>2026-07-30T09:12:58.928Z</time>
      </trkpt>
      <trkpt lat="36.685884" lon="-6.082953">
        <ele>12.037995</ele>
        <time>2026-07-30T09:13:02.738Z</time>
      </trkpt>
      <trkpt lat="36.685948" lon="-6.083207">
        <ele>12.055529</ele>
        <time>2026-07-30T09:13:06.093Z</time>
      </trkpt>
      <trkpt lat="36.685988" lon="-6.083219">
        <ele>12.058907</ele>
        <time>2026-07-30T09:13:06.743Z</time>
      </trkpt>
      <trkpt lat="36.686211" lon="-6.083101">
        <ele>12.078801</ele>
        <time>2026-07-30T09:13:10.371Z</time>
      </trkpt>
      <trkpt lat="36.686708" lon="-6.082690">
        <ele>12.127775</ele>
        <time>2026-07-30T09:13:18.940Z</time>
      </trkpt>
      <trkpt lat="36.687135" lon="-6.082218">
        <ele>12.262746</ele>
        <time>2026-07-30T09:13:26.943Z</time>
      </trkpt>
      <trkpt lat="36.687431" lon="-6.081781">
        <ele>12.584843</ele>
        <time>2026-07-30T09:13:33.637Z</time>
      </trkpt>
      <trkpt lat="36.687823" lon="-6.081463">
        <ele>12.913209</ele>
        <time>2026-07-30T09:13:41.672Z</time>
      </trkpt>
      <trkpt lat="36.688208" lon="-6.081386">
        <ele>13.187000</ele>
        <time>2026-07-30T09:13:49.492Z</time>
      </trkpt>
      <trkpt lat="36.688345" lon="-6.081406">
        <ele>13.283854</ele>
        <time>2026-07-30T09:13:52.413Z</time>
      </trkpt>
      <trkpt lat="36.688953" lon="-6.081498">
        <ele>13.726987</ele>
        <time>2026-07-30T09:14:05.659Z</time>
      </trkpt>
      <trkpt lat="36.689627" lon="-6.081600">
        <ele>14.225378</ele>
        <time>2026-07-30T09:14:19.046Z</time>
      </trkpt>
      <trkpt lat="36.690308" lon="-6.081703">
        <ele>14.728941</ele>
        <time>2026-07-30T09:14:29.455Z</time>
      </trkpt>
      <trkpt lat="36.691512" lon="-6.081995">
        <ele>14.045945</ele>
        <time>2026-07-30T09:14:44.698Z</time>
      </trkpt>
      <trkpt lat="36.691829" lon="-6.082167">
        <ele>13.844699</ele>
        <time>2026-07-30T09:14:49.093Z</time>
      </trkpt>
      <trkpt lat="36.692594" lon="-6.082759">
        <ele>13.767114</ele>
        <time>2026-07-30T09:15:01.910Z</time>
      </trkpt>
      <trkpt lat="36.692716" lon="-6.082853">
        <ele>13.782091</ele>
        <time>2026-07-30T09:15:04.157Z</time>
      </trkpt>
      <trkpt lat="36.693021" lon="-6.082990">
        <ele>13.815948</ele>
        <time>2026-07-30T09:15:09.339Z</time>
      </trkpt>
      <trkpt lat="36.695039" lon="-6.083898">
        <ele>14.355822</ele>
        <time>2026-07-30T09:15:44.464Z</time>
      </trkpt>
      <trkpt lat="36.697543" lon="-6.085022">
        <ele>14.515687</ele>
        <time>2026-07-30T09:16:23.890Z</time>
      </trkpt>
      <trkpt lat="36.698579" lon="-6.085490">
        <ele>14.548389</ele>
        <time>2026-07-30T09:16:40.444Z</time>
      </trkpt>
      <trkpt lat="36.699695" lon="-6.085994">
        <ele>14.758231</ele>
        <time>2026-07-30T09:16:58.634Z</time>
      </trkpt>
      <trkpt lat="36.699948" lon="-6.085992">
        <ele>14.809107</ele>
        <time>2026-07-30T09:17:02.652Z</time>
      </trkpt>
      <trkpt lat="36.700034" lon="-6.085947">
        <ele>14.827861</ele>
        <time>2026-07-30T09:17:04.121Z</time>
      </trkpt>
      <trkpt lat="36.700146" lon="-6.085976">
        <ele>14.850863</ele>
        <time>2026-07-30T09:17:05.967Z</time>
      </trkpt>
      <trkpt lat="36.700220" lon="-6.086085">
        <ele>14.873891</ele>
        <time>2026-07-30T09:17:07.829Z</time>
      </trkpt>
      <trkpt lat="36.700229" lon="-6.086130">
        <ele>14.881368</ele>
        <time>2026-07-30T09:17:08.435Z</time>
      </trkpt>
      <trkpt lat="36.700401" lon="-6.086329">
        <ele>14.943436</ele>
        <time>2026-07-30T09:17:12.271Z</time>
      </trkpt>
      <trkpt lat="36.701670" lon="-6.086865">
        <ele>15.510472</ele>
        <time>2026-07-30T09:17:34.365Z</time>
      </trkpt>
      <trkpt lat="36.701938" lon="-6.086984">
        <ele>15.630870</ele>
        <time>2026-07-30T09:17:38.982Z</time>
      </trkpt>
      <trkpt lat="36.701971" lon="-6.086921">
        <ele>15.656405</ele>
        <time>2026-07-30T09:17:39.958Z</time>
      </trkpt>
      <trkpt lat="36.702057" lon="-6.086905">
        <ele>15.699160</ele>
        <time>2026-07-30T09:17:41.398Z</time>
      </trkpt>
      <trkpt lat="36.702103" lon="-6.086952">
        <ele>15.733191</ele>
        <time>2026-07-30T09:17:42.389Z</time>
      </trkpt>
      <trkpt lat="36.702107" lon="-6.087061">
        <ele>15.783257</ele>
        <time>2026-07-30T09:17:43.844Z</time>
      </trkpt>
      <trkpt lat="36.702066" lon="-6.087113">
        <ele>15.816722</ele>
        <time>2026-07-30T09:17:44.824Z</time>
      </trkpt>
      <trkpt lat="36.702007" lon="-6.087121">
        <ele>15.850686</ele>
        <time>2026-07-30T09:17:45.799Z</time>
      </trkpt>
      <trkpt lat="36.701440" lon="-6.090125">
        <ele>17.356333</ele>
        <time>2026-07-30T09:18:28.577Z</time>
      </trkpt>
      <trkpt lat="36.701063" lon="-6.092116">
        <ele>18.672132</ele>
        <time>2026-07-30T09:18:57.584Z</time>
      </trkpt>
      <trkpt lat="36.701132" lon="-6.092198">
        <ele>18.761730</ele>
        <time>2026-07-30T09:18:59.378Z</time>
      </trkpt>
      <trkpt lat="36.701130" lon="-6.092280">
        <ele>18.823565</ele>
        <time>2026-07-30T09:19:00.581Z</time>
      </trkpt>
      <trkpt lat="36.701085" lon="-6.092342">
        <ele>18.886601</ele>
        <time>2026-07-30T09:19:01.848Z</time>
      </trkpt>
      <trkpt lat="36.701019" lon="-6.092355">
        <ele>18.949417</ele>
        <time>2026-07-30T09:19:03.080Z</time>
      </trkpt>
      <trkpt lat="36.700283" lon="-6.096209">
        <ele>22.651690</ele>
        <time>2026-07-30T09:20:06.480Z</time>
      </trkpt>
      <trkpt lat="36.700343" lon="-6.096488">
        <ele>22.901267</ele>
        <time>2026-07-30T09:20:10.913Z</time>
      </trkpt>
      <trkpt lat="36.700394" lon="-6.096573">
        <ele>22.992994</ele>
        <time>2026-07-30T09:20:12.493Z</time>
      </trkpt>
      <trkpt lat="36.700401" lon="-6.096720">
        <ele>23.120225</ele>
        <time>2026-07-30T09:20:14.716Z</time>
      </trkpt>
      <trkpt lat="36.700374" lon="-6.096883">
        <ele>23.264031</ele>
        <time>2026-07-30T09:20:17.219Z</time>
      </trkpt>
      <trkpt lat="36.700312" lon="-6.097245">
        <ele>23.583855</ele>
        <time>2026-07-30T09:20:22.699Z</time>
      </trkpt>
      <trkpt lat="36.700264" lon="-6.097336">
        <ele>23.677968</ele>
        <time>2026-07-30T09:20:24.292Z</time>
      </trkpt>
      <trkpt lat="36.700227" lon="-6.097508">
        <ele>23.831832</ele>
        <time>2026-07-30T09:20:26.880Z</time>
      </trkpt>
      <trkpt lat="36.700211" lon="-6.097606">
        <ele>23.900152</ele>
        <time>2026-07-30T09:20:28.318Z</time>
      </trkpt>
      <trkpt lat="36.700179" lon="-6.097790">
        <ele>24.025309</ele>
        <time>2026-07-30T09:20:30.989Z</time>
      </trkpt>
      <trkpt lat="36.700050" lon="-6.098524">
        <ele>24.524816</ele>
        <time>2026-07-30T09:20:41.777Z</time>
      </trkpt>
      <trkpt lat="36.699509" lon="-6.101663">
        <ele>26.707020</ele>
        <time>2026-07-30T09:21:28.579Z</time>
      </trkpt>
      <trkpt lat="36.699516" lon="-6.101768">
        <ele>26.779586</ele>
        <time>2026-07-30T09:21:30.162Z</time>
      </trkpt>
      <trkpt lat="36.699510" lon="-6.101818">
        <ele>26.814406</ele>
        <time>2026-07-30T09:21:30.903Z</time>
      </trkpt>
      <trkpt lat="36.699455" lon="-6.101899">
        <ele>26.888903</ele>
        <time>2026-07-30T09:21:32.489Z</time>
      </trkpt>
      <trkpt lat="36.699398" lon="-6.102105">
        <ele>27.057267</ele>
        <time>2026-07-30T09:21:35.732Z</time>
      </trkpt>
      <trkpt lat="36.699312" lon="-6.102583">
        <ele>27.435749</ele>
        <time>2026-07-30T09:21:43.084Z</time>
      </trkpt>
      <trkpt lat="36.699200" lon="-6.103203">
        <ele>27.926762</ele>
        <time>2026-07-30T09:21:52.664Z</time>
      </trkpt>
      <trkpt lat="36.699037" lon="-6.104103">
        <ele>28.644460</ele>
        <time>2026-07-30T09:22:06.534Z</time>
      </trkpt>
      <trkpt lat="36.698927" lon="-6.104712">
        <ele>29.203678</ele>
        <time>2026-07-30T09:22:16.041Z</time>
      </trkpt>
      <trkpt lat="36.698850" lon="-6.105147">
        <ele>29.602738</ele>
        <time>2026-07-30T09:22:22.905Z</time>
      </trkpt>
      <trkpt lat="36.698714" lon="-6.105925">
        <ele>30.316049</ele>
        <time>2026-07-30T09:22:35.264Z</time>
      </trkpt>
      <trkpt lat="36.698613" lon="-6.106478">
        <ele>30.781144</ele>
        <time>2026-07-30T09:22:44.335Z</time>
      </trkpt>
      <trkpt lat="36.698601" lon="-6.106661">
        <ele>30.911198</ele>
        <time>2026-07-30T09:22:47.202Z</time>
      </trkpt>
      <trkpt lat="36.698639" lon="-6.106833">
        <ele>31.037569</ele>
        <time>2026-07-30T09:22:49.955Z</time>
      </trkpt>
      <trkpt lat="36.698680" lon="-6.106922">
        <ele>31.110274</ele>
        <time>2026-07-30T09:22:51.487Z</time>
      </trkpt>
      <trkpt lat="36.698757" lon="-6.107038">
        <ele>31.216942</ele>
        <time>2026-07-30T09:22:53.772Z</time>
      </trkpt>
      <trkpt lat="36.698928" lon="-6.107159">
        <ele>31.390626</ele>
        <time>2026-07-30T09:22:57.451Z</time>
      </trkpt>
      <trkpt lat="36.698960" lon="-6.107170">
        <ele>31.419950</ele>
        <time>2026-07-30T09:22:58.088Z</time>
      </trkpt>
      <trkpt lat="36.698993" lon="-6.107182">
        <ele>31.450316</ele>
        <time>2026-07-30T09:22:58.752Z</time>
      </trkpt>
      <trkpt lat="36.699198" lon="-6.107299">
        <ele>31.649478</ele>
        <time>2026-07-30T09:23:02.818Z</time>
      </trkpt>
      <trkpt lat="36.699378" lon="-6.107453">
        <ele>31.842310</ele>
        <time>2026-07-30T09:23:06.722Z</time>
      </trkpt>
      <trkpt lat="36.700387" lon="-6.108729">
        <ele>32.707593</ele>
        <time>2026-07-30T09:23:31.446Z</time>
      </trkpt>
      <trkpt lat="36.700992" lon="-6.109487">
        <ele>33.112051</ele>
        <time>2026-07-30T09:23:45.234Z</time>
      </trkpt>
      <trkpt lat="36.701074" lon="-6.109589">
        <ele>33.148271</ele>
        <time>2026-07-30T09:23:47.108Z</time>
      </trkpt>
      <trkpt lat="36.701563" lon="-6.110225">
        <ele>33.369230</ele>
        <time>2026-07-30T09:23:58.641Z</time>
      </trkpt>
      <trkpt lat="36.701888" lon="-6.110645">
        <ele>33.515596</ele>
        <time>2026-07-30T09:24:05.491Z</time>
      </trkpt>
      <trkpt lat="36.702057" lon="-6.110793">
        <ele>33.580179</ele>
        <time>2026-07-30T09:24:08.642Z</time>
      </trkpt>
      <trkpt lat="36.702160" lon="-6.110798">
        <ele>33.612417</ele>
        <time>2026-07-30T09:24:10.228Z</time>
      </trkpt>
      <trkpt lat="36.702238" lon="-6.110869">
        <ele>33.642617</ele>
        <time>2026-07-30T09:24:11.773Z</time>
      </trkpt>
      <trkpt lat="36.702272" lon="-6.110980">
        <ele>33.757029</ele>
        <time>2026-07-30T09:24:13.369Z</time>
      </trkpt>
      <trkpt lat="36.702264" lon="-6.111065">
        <ele>33.855664</ele>
        <time>2026-07-30T09:24:14.555Z</time>
      </trkpt>
      <trkpt lat="36.702361" lon="-6.111219">
        <ele>34.081367</ele>
        <time>2026-07-30T09:24:17.386Z</time>
      </trkpt>
      <trkpt lat="36.702902" lon="-6.111776">
        <ele>35.089757</ele>
        <time>2026-07-30T09:24:31.057Z</time>
      </trkpt>
      <trkpt lat="36.703362" lon="-6.112436">
        <ele>36.097624</ele>
        <time>2026-07-30T09:24:47.245Z</time>
      </trkpt>
      <trkpt lat="36.703706" lon="-6.112954">
        <ele>37.169576</ele>
        <time>2026-07-30T09:25:00.481Z</time>
      </trkpt>
      <trkpt lat="36.703952" lon="-6.113275">
        <ele>37.919228</ele>
        <time>2026-07-30T09:25:09.049Z</time>
      </trkpt>
      <trkpt lat="36.703970" lon="-6.113294">
        <ele>37.968881</ele>
        <time>2026-07-30T09:25:09.623Z</time>
      </trkpt>
      <trkpt lat="36.704053" lon="-6.113350">
        <ele>38.167581</ele>
        <time>2026-07-30T09:25:11.855Z</time>
      </trkpt>
      <trkpt lat="36.704140" lon="-6.113335">
        <ele>38.352516</ele>
        <time>2026-07-30T09:25:13.936Z</time>
      </trkpt>
      <trkpt lat="36.704196" lon="-6.113356">
        <ele>38.475647</ele>
        <time>2026-07-30T09:25:15.325Z</time>
      </trkpt>
      <trkpt lat="36.704245" lon="-6.113398">
        <ele>38.600838</ele>
        <time>2026-07-30T09:25:16.706Z</time>
      </trkpt>
      <trkpt lat="36.704298" lon="-6.113527">
        <ele>38.845542</ele>
        <time>2026-07-30T09:25:19.413Z</time>
      </trkpt>
      <trkpt lat="36.704336" lon="-6.113655">
        <ele>39.075967</ele>
        <time>2026-07-30T09:25:21.931Z</time>
      </trkpt>
      <trkpt lat="36.704438" lon="-6.113769">
        <ele>39.364354</ele>
        <time>2026-07-30T09:25:25.104Z</time>
      </trkpt>
      <trkpt lat="36.704517" lon="-6.113837">
        <ele>39.566466</ele>
        <time>2026-07-30T09:25:27.278Z</time>
      </trkpt>
      <trkpt lat="36.704569" lon="-6.113891">
        <ele>39.708942</ele>
        <time>2026-07-30T09:25:28.759Z</time>
      </trkpt>
      <trkpt lat="36.705137" lon="-6.114605">
        <ele>40.873637</ele>
        <time>2026-07-30T09:25:45.759Z</time>
      </trkpt>
      <trkpt lat="36.705206" lon="-6.114689">
        <ele>40.998494</ele>
        <time>2026-07-30T09:25:47.860Z</time>
      </trkpt>
      <trkpt lat="36.705250" lon="-6.114746">
        <ele>41.080644</ele>
        <time>2026-07-30T09:25:49.207Z</time>
      </trkpt>
      <trkpt lat="36.705527" lon="-6.115095">
        <ele>41.590502</ele>
        <time>2026-07-30T09:25:57.286Z</time>
      </trkpt>
      <trkpt lat="36.705650" lon="-6.115254">
        <ele>41.819892</ele>
        <time>2026-07-30T09:26:00.690Z</time>
      </trkpt>
      <trkpt lat="36.705961" lon="-6.115703">
        <ele>42.407826</ele>
        <time>2026-07-30T09:26:09.084Z</time>
      </trkpt>
      <trkpt lat="36.706246" lon="-6.116243">
        <ele>42.857254</ele>
        <time>2026-07-30T09:26:17.753Z</time>
      </trkpt>
      <trkpt lat="36.706300" lon="-6.116251">
        <ele>42.904406</ele>
        <time>2026-07-30T09:26:18.724Z</time>
      </trkpt>
      <trkpt lat="36.706371" lon="-6.116295">
        <ele>42.973149</ele>
        <time>2026-07-30T09:26:20.151Z</time>
      </trkpt>
      <trkpt lat="36.706461" lon="-6.116454">
        <ele>43.108453</ele>
        <time>2026-07-30T09:26:23.022Z</time>
      </trkpt>
      <trkpt lat="36.706454" lon="-6.116647">
        <ele>43.242756</ele>
        <time>2026-07-30T09:26:25.944Z</time>
      </trkpt>
      <trkpt lat="36.706414" lon="-6.116733">
        <ele>43.311872</ele>
        <time>2026-07-30T09:26:27.470Z</time>
      </trkpt>
      <trkpt lat="36.706279" lon="-6.116833">
        <ele>43.448015</ele>
        <time>2026-07-30T09:26:30.483Z</time>
      </trkpt>
      <trkpt lat="36.706272" lon="-6.116832">
        <ele>43.454125</ele>
        <time>2026-07-30T09:26:30.603Z</time>
      </trkpt>
      <trkpt lat="36.706122" lon="-6.116808">
        <ele>43.585255</ele>
        <time>2026-07-30T09:26:33.392Z</time>
      </trkpt>
      <trkpt lat="36.706047" lon="-6.116806">
        <ele>43.650302</ele>
        <time>2026-07-30T09:26:34.774Z</time>
      </trkpt>
      <trkpt lat="36.705941" lon="-6.116874">
        <ele>43.753658</ele>
        <time>2026-07-30T09:26:37.018Z</time>
      </trkpt>
      <trkpt lat="36.705452" lon="-6.117435">
        <ele>44.227783</ele>
        <time>2026-07-30T09:26:49.753Z</time>
      </trkpt>
      <trkpt lat="36.705434" lon="-6.117456">
        <ele>44.243957</ele>
        <time>2026-07-30T09:26:50.226Z</time>
      </trkpt>
      <trkpt lat="36.705416" lon="-6.117476">
        <ele>44.259776</ele>
        <time>2026-07-30T09:26:50.705Z</time>
      </trkpt>
      <trkpt lat="36.705280" lon="-6.117630">
        <ele>44.380313</ele>
        <time>2026-07-30T09:26:54.166Z</time>
      </trkpt>
      <trkpt lat="36.704887" lon="-6.118077">
        <ele>44.729335</ele>
        <time>2026-07-30T09:27:03.183Z</time>
      </trkpt>
      <trkpt lat="36.704552" lon="-6.118456">
        <ele>45.026128</ele>
        <time>2026-07-30T09:27:10.196Z</time>
      </trkpt>
      <trkpt lat="36.704216" lon="-6.118837">
        <ele>45.252682</ele>
        <time>2026-07-30T09:27:17.765Z</time>
      </trkpt>
      <trkpt lat="36.704127" lon="-6.118939">
        <ele>45.307713</ele>
        <time>2026-07-30T09:27:19.812Z</time>
      </trkpt>
      <trkpt lat="36.703484" lon="-6.119670">
        <ele>45.703840</ele>
        <time>2026-07-30T09:27:34.135Z</time>
      </trkpt>
      <trkpt lat="36.703405" lon="-6.119759">
        <ele>45.752310</ele>
        <time>2026-07-30T09:27:35.963Z</time>
      </trkpt>
      <trkpt lat="36.702815" lon="-6.120428">
        <ele>46.094331</ele>
        <time>2026-07-30T09:27:49.552Z</time>
      </trkpt>
      <trkpt lat="36.702731" lon="-6.120522">
        <ele>46.140460</ele>
        <time>2026-07-30T09:27:51.294Z</time>
      </trkpt>
      <trkpt lat="36.702182" lon="-6.121147">
        <ele>46.444284</ele>
        <time>2026-07-30T09:28:02.450Z</time>
      </trkpt>
      <trkpt lat="36.702096" lon="-6.121243">
        <ele>46.491459</ele>
        <time>2026-07-30T09:28:04.307Z</time>
      </trkpt>
      <trkpt lat="36.702040" lon="-6.121307">
        <ele>46.522505</ele>
        <time>2026-07-30T09:28:05.545Z</time>
      </trkpt>
      <trkpt lat="36.701978" lon="-6.121447">
        <ele>46.574919</ele>
        <time>2026-07-30T09:28:07.747Z</time>
      </trkpt>
      <trkpt lat="36.701992" lon="-6.121653">
        <ele>46.642671</ele>
        <time>2026-07-30T09:28:10.772Z</time>
      </trkpt>
      <trkpt lat="36.701905" lon="-6.121828">
        <ele>46.893573</ele>
        <time>2026-07-30T09:28:13.879Z</time>
      </trkpt>
      <trkpt lat="36.701827" lon="-6.121885">
        <ele>47.034454</ele>
        <time>2026-07-30T09:28:15.638Z</time>
      </trkpt>
      <trkpt lat="36.701738" lon="-6.121906">
        <ele>47.175609</ele>
        <time>2026-07-30T09:28:17.384Z</time>
      </trkpt>
      <trkpt lat="36.701631" lon="-6.121876">
        <ele>47.346517</ele>
        <time>2026-07-30T09:28:19.531Z</time>
      </trkpt>
      <trkpt lat="36.701492" lon="-6.121935">
        <ele>47.575331</ele>
        <time>2026-07-30T09:28:22.462Z</time>
      </trkpt>
      <trkpt lat="36.701262" lon="-6.122192">
        <ele>48.056559</ele>
        <time>2026-07-30T09:28:28.883Z</time>
      </trkpt>
      <trkpt lat="36.701174" lon="-6.122292">
        <ele>48.242079</ele>
        <time>2026-07-30T09:28:31.524Z</time>
      </trkpt>
      <trkpt lat="36.700499" lon="-6.123058">
        <ele>49.611997</ele>
        <time>2026-07-30T09:28:52.832Z</time>
      </trkpt>
      <trkpt lat="36.700397" lon="-6.123174">
        <ele>49.775169</ele>
        <time>2026-07-30T09:28:55.927Z</time>
      </trkpt>
      <trkpt lat="36.699995" lon="-6.123631">
        <ele>50.418150</ele>
        <time>2026-07-30T09:29:07.487Z</time>
      </trkpt>
      <trkpt lat="36.699886" lon="-6.123754">
        <ele>50.591909</ele>
        <time>2026-07-30T09:29:10.430Z</time>
      </trkpt>
      <trkpt lat="36.699896" lon="-6.123874">
        <ele>50.706256</ele>
        <time>2026-07-30T09:29:12.314Z</time>
      </trkpt>
      <trkpt lat="36.699793" lon="-6.124035">
        <ele>50.901471</ele>
        <time>2026-07-30T09:29:15.516Z</time>
      </trkpt>
      <trkpt lat="36.699683" lon="-6.124062">
        <ele>51.033996</ele>
        <time>2026-07-30T09:29:17.658Z</time>
      </trkpt>
      <trkpt lat="36.699486" lon="-6.124122">
        <ele>51.273713</ele>
        <time>2026-07-30T09:29:21.431Z</time>
      </trkpt>
      <trkpt lat="36.699370" lon="-6.124256">
        <ele>51.460616</ele>
        <time>2026-07-30T09:29:24.267Z</time>
      </trkpt>
      <trkpt lat="36.699263" lon="-6.124379">
        <ele>51.547496</ele>
        <time>2026-07-30T09:29:26.679Z</time>
      </trkpt>
      <trkpt lat="36.698714" lon="-6.124998">
        <ele>51.150309</ele>
        <time>2026-07-30T09:29:36.149Z</time>
      </trkpt>
      <trkpt lat="36.698632" lon="-6.125092">
        <ele>51.090537</ele>
        <time>2026-07-30T09:29:37.501Z</time>
      </trkpt>
      <trkpt lat="36.698567" lon="-6.125168">
        <ele>51.042720</ele>
        <time>2026-07-30T09:29:38.590Z</time>
      </trkpt>
      <trkpt lat="36.698405" lon="-6.125353">
        <ele>50.924838</ele>
        <time>2026-07-30T09:29:41.474Z</time>
      </trkpt>
      <trkpt lat="36.698378" lon="-6.125384">
        <ele>50.905143</ele>
        <time>2026-07-30T09:29:41.968Z</time>
      </trkpt>
      <trkpt lat="36.698254" lon="-6.125526">
        <ele>50.814797</ele>
        <time>2026-07-30T09:29:44.122Z</time>
      </trkpt>
      <trkpt lat="36.698237" lon="-6.125545">
        <ele>50.802547</ele>
        <time>2026-07-30T09:29:44.389Z</time>
      </trkpt>
      <trkpt lat="36.698149" lon="-6.125783">
        <ele>50.689768</ele>
        <time>2026-07-30T09:29:47.050Z</time>
      </trkpt>
      <trkpt lat="36.698143" lon="-6.125830">
        <ele>50.669289</ele>
        <time>2026-07-30T09:29:47.543Z</time>
      </trkpt>
      <trkpt lat="36.698105" lon="-6.125917">
        <ele>50.626658</ele>
        <time>2026-07-30T09:29:48.505Z</time>
      </trkpt>
      <trkpt lat="36.698031" lon="-6.125973">
        <ele>50.602171</ele>
        <time>2026-07-30T09:29:49.593Z</time>
      </trkpt>
      <trkpt lat="36.697989" lon="-6.125975">
        <ele>50.596952</ele>
        <time>2026-07-30T09:29:50.079Z</time>
      </trkpt>
      <trkpt lat="36.697806" lon="-6.126029">
        <ele>50.573603</ele>
        <time>2026-07-30T09:29:52.373Z</time>
      </trkpt>
      <trkpt lat="36.697633" lon="-6.126232">
        <ele>50.544109</ele>
        <time>2026-07-30T09:29:55.295Z</time>
      </trkpt>
      <trkpt lat="36.697600" lon="-6.126270">
        <ele>50.538532</ele>
        <time>2026-07-30T09:29:55.831Z</time>
      </trkpt>
      <trkpt lat="36.696879" lon="-6.127087">
        <ele>50.417576</ele>
        <time>2026-07-30T09:30:11.736Z</time>
      </trkpt>
      <trkpt lat="36.696801" lon="-6.127175">
        <ele>50.404516</ele>
        <time>2026-07-30T09:30:13.306Z</time>
      </trkpt>
      <trkpt lat="36.696741" lon="-6.127242">
        <ele>50.394516</ele>
        <time>2026-07-30T09:30:14.490Z</time>
      </trkpt>
      <trkpt lat="36.696568" lon="-6.127438">
        <ele>50.421120</ele>
        <time>2026-07-30T09:30:17.961Z</time>
      </trkpt>
      <trkpt lat="36.695525" lon="-6.128619">
        <ele>50.733758</ele>
        <time>2026-07-30T09:30:40.188Z</time>
      </trkpt>
      <trkpt lat="36.695351" lon="-6.128822">
        <ele>50.785065</ele>
        <time>2026-07-30T09:30:44.093Z</time>
      </trkpt>
      <trkpt lat="36.695203" lon="-6.128995">
        <ele>50.795026</ele>
        <time>2026-07-30T09:30:47.526Z</time>
      </trkpt>
      <trkpt lat="36.694350" lon="-6.129993">
        <ele>50.852459</ele>
        <time>2026-07-30T09:31:05.250Z</time>
      </trkpt>
      <trkpt lat="36.694231" lon="-6.130131">
        <ele>50.860439</ele>
        <time>2026-07-30T09:31:07.610Z</time>
      </trkpt>
      <trkpt lat="36.694254" lon="-6.130174">
        <ele>50.862474</ele>
        <time>2026-07-30T09:31:08.194Z</time>
      </trkpt>
      <trkpt lat="36.694236" lon="-6.130286">
        <ele>50.866972</ele>
        <time>2026-07-30T09:31:09.501Z</time>
      </trkpt>
      <trkpt lat="36.693930" lon="-6.130657">
        <ele>50.893423</ele>
        <time>2026-07-30T09:31:15.364Z</time>
      </trkpt>
      <trkpt lat="36.693875" lon="-6.130656">
        <ele>50.897114</ele>
        <time>2026-07-30T09:31:16.062Z</time>
      </trkpt>
      <trkpt lat="36.693823" lon="-6.130615">
        <ele>50.901243</ele>
        <time>2026-07-30T09:31:16.864Z</time>
      </trkpt>
      <trkpt lat="36.693698" lon="-6.130758">
        <ele>50.912626</ele>
        <time>2026-07-30T09:31:19.023Z</time>
      </trkpt>
      <trkpt lat="36.693565" lon="-6.130916">
        <ele>50.924953</ele>
        <time>2026-07-30T09:31:21.360Z</time>
      </trkpt>
      <trkpt lat="36.693146" lon="-6.131419">
        <ele>50.963982</ele>
        <time>2026-07-30T09:31:30.143Z</time>
      </trkpt>
      <trkpt lat="36.693066" lon="-6.131519">
        <ele>50.971583</ele>
        <time>2026-07-30T09:31:32.092Z</time>
      </trkpt>
      <trkpt lat="36.692783" lon="-6.131894">
        <ele>50.993646</ele>
        <time>2026-07-30T09:31:39.559Z</time>
      </trkpt>
      <trkpt lat="36.692657" lon="-6.132103">
        <ele>50.993646</ele>
        <time>2026-07-30T09:31:43.463Z</time>
      </trkpt>
      <trkpt lat="36.692403" lon="-6.132527">
        <ele>50.993646</ele>
        <time>2026-07-30T09:31:51.439Z</time>
      </trkpt>
      <trkpt lat="36.692342" lon="-6.132628">
        <ele>50.993646</ele>
        <time>2026-07-30T09:31:53.423Z</time>
      </trkpt>
      <trkpt lat="36.692265" lon="-6.132757">
        <ele>50.993646</ele>
        <time>2026-07-30T09:31:56.001Z</time>
      </trkpt>
      <trkpt lat="36.692196" lon="-6.132871">
        <ele>50.993646</ele>
        <time>2026-07-30T09:31:58.334Z</time>
      </trkpt>
    </trkseg>
  </trk>
</gpx>